{"type": "FeatureCollection", "features": [{"type": "Feature", "properties": {"norad_id": 50032, "name": "COSMOS 1408 DEB", "group": "cosmos-1408-debris", "lat": -75.93162794812508, "lon": -86.45500903954219, "alt_km": 428.5820917670808, "timestamp": "2025-12-09T04:51:47.763755+00:00", "meta": {"OBJECT_NAME": "COSMOS 1408 DEB", "OBJECT_ID": "1982-092RU", "EPOCH": "2025-12-08T15:19:11.985024", "MEAN_MOTION": 15.45630719, "ECCENTRICITY": 0.0014914, "INCLINATION": 82.5643, "RA_OF_ASC_NODE": 62.7122, "ARG_OF_PERICENTER": 224.4599, "MEAN_ANOMALY": 135.5454, "EPHEMERIS_TYPE": 0, "CLASSIFICATION_TYPE": "U", "NORAD_CAT_ID": 50032, "ELEMENT_SET_NO": 999, "REV_AT_EPOCH": 22540, "BSTAR": 0.00015668, "MEAN_MOTION_DOT": 7.615e-05, "MEAN_MOTION_DDOT": 0}, "tle": {"line1": "1 50032U 82092RU  25342.63833316  .00007615  00000+0  15668-3 0  9997", "line2": "2 50032  82.5643  62.7122 0014914 224.4599 135.5454 15.45630719225405"}}, "geometry": {"type": "Point", "coordinates": [-86.45500903954219, -75.93162794812508]}}, {"type": "Feature", "properties": {"norad_id": 50058, "name": "COSMOS 1408 DEB", "group": "cosmos-1408-debris", "lat": -47.13295507359261, "lon": -98.92249427143275, "alt_km": 388.55215937649336, "timestamp": "2025-12-09T04:51:47.763777+00:00", "meta": {"OBJECT_NAME": "COSMOS 1408 DEB", "OBJECT_ID": "1982-092SW", "EPOCH": "2025-12-08T07:55:44.645376", "MEAN_MOTION": 15.63709561, "ECCENTRICITY": 0.0016354, "INCLINATION": 82.6131, "RA_OF_ASC_NODE": 73.955, "ARG_OF_PERICENTER": 114.3465, "MEAN_ANOMALY": 245.9504, "EPHEMERIS_TYPE": 0, "CLASSIFICATION_TYPE": "U", "NORAD_CAT_ID": 50058, "ELEMENT_SET_NO": 999, "REV_AT_EPOCH": 22735, "BSTAR": 0.0004087218, "MEAN_MOTION_DOT": 0.00038485, "MEAN_MOTION_DDOT": 0}, "tle": {"line1": "1 50058U 82092SW  25342.33037784  .00038485  00000+0  40872-3 0  9991", "line2": "2 50058  82.6131  73.9550 0016354 114.3465 245.9504 15.63709561227354"}}, "geometry": {"type": "Point", "coordinates": [-98.92249427143275, -47.13295507359261]}}, {"type": "Feature", "properties": {"norad_id": 50404, "name": "COSMOS 1408 DEB", "group": "cosmos-1408-debris", "lat": -78.56001551183296, "lon": 81.26984242572888, "alt_km": 456.8983657103918, "timestamp": "2025-12-09T04:51:47.763790+00:00", "meta": {"OBJECT_NAME": "COSMOS 1408 DEB", "OBJECT_ID": "1982-092ADS", "EPOCH": "2025-12-08T16:36:04.913856", "MEAN_MOTION": 15.1292564, "ECCENTRICITY": 0.0173605, "INCLINATION": 82.2033, "RA_OF_ASC_NODE": 219.1748, "ARG_OF_PERICENTER": 212.8662, "MEAN_ANOMALY": 146.1681, "EPHEMERIS_TYPE": 0, "CLASSIFICATION_TYPE": "U", "NORAD_CAT_ID": 50404, "ELEMENT_SET_NO": 999, "REV_AT_EPOCH": 21132, "BSTAR": 0.0033998, "MEAN_MOTION_DOT": 0.00087766, "MEAN_MOTION_DDOT": 0}, "tle": {"line1": "1 50404U 82092ADS 25342.69172354  .00087766  00000+0  33998-2 0  9994", "line2": "2 50404  82.2033 219.1748 0173605 212.8662 146.1681 15.12925640211325"}}, "geometry": {"type": "Point", "coordinates": [81.26984242572888, -78.56001551183296]}}, {"type": "Feature", "properties": {"norad_id": 50621, "name": "COSMOS 1408 DEB", "group": "cosmos-1408-debris", "lat": -21.87026948463626, "lon": 74.8598520180797, "alt_km": 423.01431761183176, "timestamp": "2025-12-09T04:51:47.763801+00:00", "meta": {"OBJECT_NAME": "COSMOS 1408 DEB", "OBJECT_ID": "1982-092ALR", "EPOCH": "2025-12-08T18:09:24.571296", "MEAN_MOTION": 15.56343365, "ECCENTRICITY": 0.0028837, "INCLINATION": 82.5706, "RA_OF_ASC_NODE": 78.3265, "ARG_OF_PERICENTER": 167.0351, "MEAN_ANOMALY": 193.1653, "EPHEMERIS_TYPE": 0, "CLASSIFICATION_TYPE": "U", "NORAD_CAT_ID": 50621, "ELEMENT_SET_NO": 999, "REV_AT_EPOCH": 22188, "BSTAR": 0.00048241, "MEAN_MOTION_DOT": 0.00034742, "MEAN_MOTION_DDOT": 0}, "tle": {"line1": "1 50621U 82092ALR 25342.75653439  .00034742  00000+0  48241-3 0  9994", "line2": "2 50621  82.5706  78.3265 0028837 167.0351 193.1653 15.56343365221886"}}, "geometry": {"type": "Point", "coordinates": [74.8598520180797, -21.87026948463626]}}]}